[{"OBJECT_NAME":"OBJECT K","OBJECT_ID":"2024-205K","EPOCH":"2026-03-09T22:22:01.331040","MEAN_MOTION":15.27932792,"ECCENTRICITY":0.00106729,"INCLINATION":97.417,"RA_OF_ASC_NODE":146.2172,"ARG_OF_PERICENTER":37.4736,"MEAN_ANOMALY":322.7246,"EPHEMERIS_TYPE":0,"CLASSIFICATION_TYPE":"U","NORAD_CAT_ID":61903,"ELEMENT_SET_NO":999,"REV_AT_EPOCH":7347,"BSTAR":0.00067315144,"MEAN_MOTION_DOT":0.00018331,"MEAN_MOTION_DDOT":0},{"OBJECT_NAME":"STARLINK-35358","OBJECT_ID":"2025-268H","EPOCH":"2026-03-09T04:19:45.468768","MEAN_MOTION":15.27581703,"ECCENTRICITY":0.00017583,"INCLINATION":43.0022,"RA_OF_ASC_NODE":349.7872,"ARG_OF_PERICENTER":257.8104,"MEAN_ANOMALY":102.2551,"EPHEMERIS_TYPE":0,"CLASSIFICATION_TYPE":"U","NORAD_CAT_ID":66564,"ELEMENT_SET_NO":999,"REV_AT_EPOCH":1788,"BSTAR":0.0012274192,"MEAN_MOTION_DOT":0.0003367,"MEAN_MOTION_DDOT":0}]
